[{"OBJECT_NAME":"STARLINK-11285 [DTC]","OBJECT_ID":"2024-187E","EPOCH":"2026-03-09T21:13:22.914336","MEAN_MOTION":15.6969536,"ECCENTRICITY":9.972e-5,"INCLINATION":53.1589,"RA_OF_ASC_NODE":295.0889,"ARG_OF_PERICENTER":73.79,"MEAN_ANOMALY":286.3227,"EPHEMERIS_TYPE":0,"CLASSIFICATION_TYPE":"U","NORAD_CAT_ID":61578,"ELEMENT_SET_NO":999,"REV_AT_EPOCH":8073,"BSTAR":1.921585e-6,"MEAN_MOTION_DOT":-3.56e-6,"MEAN_MOTION_DDOT":0},{"OBJECT_NAME":"TUSUR GO (RS78S)","OBJECT_ID":"2024-199AZ","EPOCH":"2026-03-09T22:48:41.341536","MEAN_MOTION":15.7089308,"ECCENTRICITY":0.00036127,"INCLINATION":97.3018,"RA_OF_ASC_NODE":306.7757,"ARG_OF_PERICENTER":269.724,"MEAN_ANOMALY":90.3609,"EPHEMERIS_TYPE":0,"CLASSIFICATION_TYPE":"U","NORAD_CAT_ID":61782,"ELEMENT_SET_NO":999,"REV_AT_EPOCH":11926,"BSTAR":0.0013446465,"MEAN_MOTION_DOT":0.00170473,"MEAN_MOTION_DDOT":0}]
